CTC1_L_00151016-03
1 18321U 22698ZL  26070.40833333  .00000000  00000+0  00000-0 0  9993
2 18321  70.0000 180.0000 0000000   0.0000   0.0000 14.06899812    12
CTC1_L_00151016-04
1 18322U 24936BG  26070.40833333  .00000000  00000+0  00000-0 0  9991
2 18322  70.0000 180.0000 0000000   0.0000  90.0000 14.06899812    12
CTC1_L_00151017-01
1 18323U 26864ZN  26070.40833333  .00000000  00000+0  00000-0 0  9994
2 18323  70.0000 192.0000 0000000   0.0000 192.0000 14.06899812    19
CTC1_L_00151017-02
1 18324U 24472VO  26070.40833333  .00000000  00000+0  00000-0 0  9998
2 18324  70.0000 192.0000 0000000   0.0000 282.0000 14.06899812    10
CTC1_L_00151017-03
1 18325U 25687QO  26070.40833333  .00000000  00000+0  00000-0 0  9998
2 18325  70.0000 192.0000 0000000   0.0000  12.0000 14.06899812    12
CTC1_L_00151017-04
1 18326U 22991MT  26070.40833333  .00000000  00000+0  00000-0 0  9994
2 18326  70.0000 192.0000 0000000   0.0000 102.0000 14.06899812    13
CTC1_L_00151018-01
1 18327U 23303DX  26070.40833333  .00000000  00000+0  00000-0 0  9993
2 18327  70.0000 204.0000 0000000   0.0000 204.0000 14.06899812    11
CTC1_L_00151018-02
1 18328U 26488YR  26070.40833333  .00000000  00000+0  00000-0 0  9991
2 18328  70.0000 204.0000 0000000   0.0000 294.0000 14.06899812    11
CTC1_L_00151018-03
1 18329U 24914VX  26070.40833333  .00000000  00000+0  00000-0 0  9994
2 18329  70.0000 204.0000 0000000   0.0000  24.0000 14.06899812    13
CTC1_L_00151018-04
1 18330U 26867EW  26070.40833333  .00000000  00000+0  00000-0 0  9995
2 18330  70.0000 204.0000 0000000   0.0000 114.0000 14.06899812    15
CTC1_L_00151019-01
1 18331U 22642QT  26070.40833333  .00000000  00000+0  00000-0 0  9993
2 18331  70.0000 216.0000 0000000   0.0000 216.0000 14.06899812    12
CTC1_L_00151019-02
1 18332U 23350YV  26070.40833333  .00000000  00000+0  00000-0 0  9991
2 18332  70.0000 216.0000 0000000   0.0000 306.0000 14.06899812    13
CTC1_L_00151019-03
1 18333U 23565YI  26070.40833333  .00000000  00000+0  00000-0 0  9990
2 18333  70.0000 216.0000 0000000   0.0000  36.0000 14.06899812    14
CTC1_L_00151019-04
1 18334U 22385ZC  26070.40833333  .00000000  00000+0  00000-0 0  9990
2 18334  70.0000 216.0000 0000000   0.0000 126.0000 14.06899812    15
CTC1_L_00151020-01
1 18335U 23554TE  26070.40833333  .00000000  00000+0  00000-0 0  9990
2 18335  70.0000 228.0000 0000000   0.0000 228.0000 14.06899812    12
CTC1_L_00151020-02
1 18336U 23527KY  26070.40833333  .00000000  00000+0  00000-0 0  9991
2 18336  70.0000 228.0000 0000000   0.0000 318.0000 14.06899812    13
CTC1_L_00151020-03
1 18337U 25565YI  26070.40833333  .00000000  00000+0  00000-0 0  9996
2 18337  70.0000 228.0000 0000000   0.0000  48.0000 14.06899812    14
CTC1_L_00151020-04
1 18338U 22646CU  26070.40833333  .00000000  00000+0  00000-0 0  9994
2 18338  70.0000 228.0000 0000000   0.0000 138.0000 14.06899812    15
CTC1_L_00151021-01
1 18339U 26931UD  26070.40833333  .00000000  00000+0  00000-0 0  9996
2 18339  70.0000 240.0000 0000000   0.0000 240.0000 14.06899812    14
CTC1_L_00151021-02
1 18340U 26712SA  26070.40833333  .00000000  00000+0  00000-0 0  9995
2 18340  70.0000 240.0000 0000000   0.0000 330.0000 14.06899812    16
CTC1_L_00151021-03
1 18341U 26371DE  26070.40833333  .00000000  00000+0  00000-0 0  9997
2 18341  70.0000 240.0000 0000000   0.0000  60.0000 14.06899812    17
CTC1_L_00151021-04
1 18342U 22990JW  26070.40833333  .00000000  00000+0  00000-0 0  9991
2 18342  70.0000 240.0000 0000000   0.0000 150.0000 14.06899812    18
CTC1_L_00151022-01
1 18343U 26131WI  26070.40833333  .00000000  00000+0  00000-0 0  9993
2 18343  70.0000 252.0000 0000000   0.0000 252.0000 14.06899812    15
CTC1_L_00151022-02
1 18344U 26677WP  26070.40833333  .00000000  00000+0  00000-0 0  9999
2 18344  70.0000 252.0000 0000000   0.0000 342.0000 14.06899812    16
CTC1_L_00151022-03
1 18345U 24964AC  26070.40833333  .00000000  00000+0  00000-0 0  9997
2 18345  70.0000 252.0000 0000000   0.0000  72.0000 14.06899812    17
CTC1_L_00151022-04
1 18346U 23036DG  26070.40833333  .00000000  00000+0  00000-0 0  9997
2 18346  70.0000 252.0000 0000000   0.0000 162.0000 14.06899812    18
CTC1_L_00151023-01
1 18347U 26638BH  26070.40833333  .00000000  00000+0  00000-0 0  9999
2 18347  70.0000 264.0000 0000000   0.0000 264.0000 14.06899812    15
CTC1_L_00151023-02
1 18348U 22229QY  26070.40833333  .00000000  00000+0  00000-0 0  9992
2 18348  70.0000 264.0000 0000000   0.0000 354.0000 14.06899812    16
CTC1_L_00151023-03
1 18349U 23618YT  26070.40833333  .00000000  00000+0  00000-0 0  9996
2 18349  70.0000 264.0000 0000000   0.0000  84.0000 14.06899812    17
CTC1_L_00151023-04
1 18350U 25447HN  26070.40833333  .00000000  00000+0  00000-0 0  9990
2 18350  70.0000 264.0000 0000000   0.0000 174.0000 14.06899812    19
CTC1_L_00151024-01
1 18351U 23432DH  26070.40833333  .00000000  00000+0  00000-0 0  9993
2 18351  70.0000 276.0000 0000000   0.0000 276.0000 14.06899812    16
CTC1_L_00151024-02
1 18352U 23912HN  26070.40833333  .00000000  00000+0  00000-0 0  9997
2 18352  70.0000 276.0000 0000000   0.0000   6.0000 14.06899812    18
CTC1_L_00151024-03
1 18353U 22158TE  26070.40833333  .00000000  00000+0  00000-0 0  9999
2 18353  70.0000 276.0000 0000000   0.0000  96.0000 14.06899812    18
CTC1_L_00151024-04
1 18354U 25150W   26070.40833333  .00000000  00000+0  00000-0 0  9995
2 18354  70.0000 276.0000 0000000   0.0000 186.0000 14.06899812    19
CTC1_L_00151025-01
1 18355U 26003HR  26070.40833333  .00000000  00000+0  00000-0 0  9994
2 18355  70.0000 288.0000 0000000   0.0000 288.0000 14.06899812    16
CTC1_L_00151025-02
1 18356U 25310UL  26070.40833333  .00000000  00000+0  00000-0 0  9995
2 18356  70.0000 288.0000 0000000   0.0000  18.0000 14.06899812    18
CTC1_L_00151025-03
1 18357U 23150NY  26070.40833333  .00000000  00000+0  00000-0 0  9996
2 18357  70.0000 288.0000 0000000   0.0000 108.0000 14.06899812    19
CTC1_L_00151025-04
1 18358U 24841ZD  26070.40833333  .00000000  00000+0  00000-0 0  9995
2 18358  70.0000 288.0000 0000000   0.0000 198.0000 14.06899812    19
CTC1_L_00151026-01
1 18359U 26690XC  26070.40833333  .00000000  00000+0  00000-0 0  9990
2 18359  70.0000 300.0000 0000000   0.0000 300.0000 14.06899812    10
CTC1_L_00151026-02
1 18360U 22234QH  26070.40833333  .00000000  00000+0  00000-0 0  9992
2 18360  70.0000 300.0000 0000000   0.0000  30.0000 14.06899812    12
CTC1_L_00151026-03
1 18361U 23434MQ  26070.40833333  .00000000  00000+0  00000-0 0  9996
2 18361  70.0000 300.0000 0000000   0.0000 120.0000 14.06899812    13
CTC1_L_00151026-04
1 18362U 26468PQ  26070.40833333  .00000000  00000+0  00000-0 0  9997
2 18362  70.0000 300.0000 0000000   0.0000 210.0000 14.06899812    14
CTC1_L_00151027-01
1 18363U 24805MZ  26070.40833333  .00000000  00000+0  00000-0 0  9991
2 18363  70.0000 312.0000 0000000   0.0000 312.0000 14.06899812    11
CTC1_L_00151027-02
1 18364U 23134SI  26070.40833333  .00000000  00000+0  00000-0 0  9996
2 18364  70.0000 312.0000 0000000   0.0000  42.0000 14.06899812    12
CTC1_L_00151027-03
1 18365U 24195NZ  26070.40833333  .00000000  00000+0  00000-0 0  9995
2 18365  70.0000 312.0000 0000000   0.0000 132.0000 14.06899812    13
CTC1_L_00151027-04
1 18366U 23172IR  26070.40833333  .00000000  00000+0  00000-0 0  9990
2 18366  70.0000 312.0000 0000000   0.0000 222.0000 14.06899812    14
CTC1_L_00151028-01
1 18367U 25916LP  26070.40833333  .00000000  00000+0  00000-0 0  9999
2 18367  70.0000 324.0000 0000000   0.0000 324.0000 14.06899812    11
CTC1_L_00151028-02
1 18368U 24479YN  26070.40833333  .00000000  00000+0  00000-0 0  9993
2 18368  70.0000 324.0000 0000000   0.0000  54.0000 14.06899812    12
CTC1_L_00151028-03
1 18369U 22007ZD  26070.40833333  .00000000  00000+0  00000-0 0  9999
2 18369  70.0000 324.0000 0000000   0.0000 144.0000 14.06899812    13
CTC1_L_00151028-04
1 18370U 26349UB  26070.40833333  .00000000  00000+0  00000-0 0  9994
2 18370  70.0000 324.0000 0000000   0.0000 234.0000 14.06899812    15
CTC1_L_00151029-01
1 18371U 24433GX  26070.40833333  .00000000  00000+0  00000-0 0  9997
2 18371  70.0000 336.0000 0000000   0.0000 336.0000 14.06899812    12
CTC1_L_00151029-02
1 18372U 22699JS  26070.40833333  .00000000  00000+0  00000-0 0  9990
2 18372  70.0000 336.0000 0000000   0.0000  66.0000 14.06899812    13
CTC1_L_00151029-03
1 18373U 22826H   26070.40833333  .00000000  00000+0  00000-0 0  9993
2 18373  70.0000 336.0000 0000000   0.0000 156.0000 14.06899812    14
CTC1_L_00151029-04
1 18374U 25238VX  26070.40833333  .00000000  00000+0  00000-0 0  9994
2 18374  70.0000 336.0000 0000000   0.0000 246.0000 14.06899812    15
CTC1_L_00151030-01
1 18375U 24840PY  26070.40833333  .00000000  00000+0  00000-0 0  9993
2 18375  70.0000 348.0000 0000000   0.0000 348.0000 14.06899812    12
CTC1_L_00151030-02
1 18376U 24019ER  26070.40833333  .00000000  00000+0  00000-0 0  9992
2 18376  70.0000 348.0000 0000000   0.0000  78.0000 14.06899812    13
CTC1_L_00151030-03
1 18377U 22011YR  26070.40833333  .00000000  00000+0  00000-0 0  9993
2 18377  70.0000 348.0000 0000000   0.0000 168.0000 14.06899812    14
CTC1_L_00151030-04
1 18378U 22952VD  26070.40833333  .00000000  00000+0  00000-0 0  9998
2 18378  70.0000 348.0000 0000000   0.0000 258.0000 14.06899812    15
